var structperturb_1_1TwoLineElement =
[
    [ "parse", "structperturb_1_1TwoLineElement.html#ad999212b90f6e7de70a23f4854579044", null ],
    [ "parse", "structperturb_1_1TwoLineElement.html#a86841c65304ef897483aa5841c4b20ad", null ],
    [ "arg_of_perigee", "structperturb_1_1TwoLineElement.html#acc85f741a56a5b0197c169ec6bcfb89a", null ],
    [ "b_star", "structperturb_1_1TwoLineElement.html#a605f83a36208908325fe469768b8856e", null ],
    [ "catalog_number", "structperturb_1_1TwoLineElement.html#a5d62a555571b2503c7d36a7469d21463", null ],
    [ "classification", "structperturb_1_1TwoLineElement.html#a58dacf08a7f4d87213509132b309424d", null ],
    [ "eccentricity", "structperturb_1_1TwoLineElement.html#af6ec2803b9f8e497b19c71b944b18580", null ],
    [ "element_set_number", "structperturb_1_1TwoLineElement.html#af3c59c69a11a5f7dec34093ea0f874bb", null ],
    [ "ephemeris_type", "structperturb_1_1TwoLineElement.html#ababbdb32461993fa9e899ed38190f4c2", null ],
    [ "epoch_day_of_year", "structperturb_1_1TwoLineElement.html#a0bff4c5317b348e3805398e03e1715f9", null ],
    [ "epoch_year", "structperturb_1_1TwoLineElement.html#a356e5f46fa54a70e86a968f6fb6f9dfa", null ],
    [ "inclination", "structperturb_1_1TwoLineElement.html#ac10a570fbbf73f251b5a205b1ad0c87b", null ],
    [ "launch_number", "structperturb_1_1TwoLineElement.html#a5e0b59e21efb970cc399e4b40fb7759a", null ],
    [ "launch_piece", "structperturb_1_1TwoLineElement.html#aa865932307f98a2991a193206af4bafa", null ],
    [ "launch_year", "structperturb_1_1TwoLineElement.html#a390e4ff34ac24817b136edd67ca47697", null ],
    [ "line_1_checksum", "structperturb_1_1TwoLineElement.html#a0ba2b2d51d495937596b962e947010a2", null ],
    [ "line_2_checksum", "structperturb_1_1TwoLineElement.html#ad012be5d22a175ecfcb2be8f887da4e9", null ],
    [ "mean_anomaly", "structperturb_1_1TwoLineElement.html#ae61945431234f52a7b6bc69378659e98", null ],
    [ "mean_motion", "structperturb_1_1TwoLineElement.html#ab606ac5a087933c02ac1a316b188a93e", null ],
    [ "n_ddot", "structperturb_1_1TwoLineElement.html#a963fefaddee5eac92784f56e81c2c62d", null ],
    [ "n_dot", "structperturb_1_1TwoLineElement.html#aeb892167daa76dbc82a214fc76998f9e", null ],
    [ "raan", "structperturb_1_1TwoLineElement.html#a1d540b85beac045a735cf077d3f55561", null ],
    [ "revolution_number", "structperturb_1_1TwoLineElement.html#a4d66eff4e5aa55b3be1ae29fbc2605df", null ]
];